{"fetched_at":"2026-03-30T09:12:31Z","count":15922,"tles":[{"name":"STARLINK-31165","line1":"1 58748U 24005W   26087.79170322  .00004674  00000+0  17915-3 0  9993","line2":"2 58748  43.0033 111.9989 0001642 251.4916 108.5758 15.27599749123363","category":"Starlink"}]}